{
  "53485": {
    "noradId": "53485",
    "tle": [
      "1 53485C 22099W   25301.78520833 -.00002666  00000+0 -20790-3 0  3013",
      "2 53485  97.6030  61.0775 0002645  91.3728 236.6439 15.01266244    10"
    ]
  },
  "53486": {
    "noradId": "53486",
    "tle": [
      "1 53486C 22099X   25301.78937500  .00001281  00000+0  99890-4 0  3015",
      "2 53486  97.6030  61.0822 0002460  85.2919 245.2250 15.01264033    14"
    ]
  },
  "53487": {
    "noradId": "53487",
    "tle": [
      "1 53487C 22099Y   25301.78520833 -.00004314  00000+0 -29957-3 0  3011",
      "2 53487  97.6038  61.1960 0001586  90.6266 177.2416 15.05656614    12"
    ]
  },
  "53488": {
    "noradId": "53488",
    "tle": [
      "1 53488C 22099Z   25301.79354167  .00002511  00000+0  17432-3 0  3018",
      "2 53488  97.6022  61.2682 0001048  94.8124 338.1738 15.05648617    19"
    ]
  },
  "53489": {
    "noradId": "53489",
    "tle": [
      "1 53489C 22099AA  25301.78590278 -.00004662  00000+0 -36364-3 0  3019",
      "2 53489  97.6030  61.0610 0001719  93.2629 227.1745 15.01267365    14"
    ]
  },
  "53490": {
    "noradId": "53490",
    "tle": [
      "1 53490C 22099AB  25301.78798611 -.00004679  00000+0 -32465-3 0  3018",
      "2 53490  97.6041  61.1817 0001847  86.0202 151.8063 15.05683056    16"
    ]
  },
  "53491": {
    "noradId": "53491",
    "tle": [
      "1 53491C 22099AC  25301.78590278  .00001829  00000+0  14265-3 0  3018",
      "2 53491  97.6022  61.0778 0002175 243.3485 157.0962 15.01263514    12"
    ]
  },
  "53492": {
    "noradId": "53492",
    "tle": [
      "1 53492C 22099AD  25301.79215278 -.00003102  00000+0 -24200-3 0  3012",
      "2 53492  97.6012  61.0858 0000483 216.1707 189.3590 15.01265145    13"
    ]
  },
  "53493": {
    "noradId": "53493",
    "tle": [
      "1 53493C 22099AE  25301.79840278  .00874460  00000+0  15954-1 0  3012",
      "2 53493  97.6550  62.7843 0001146  83.1925  88.4079 15.48582124    15"
    ]
  },
  "53494": {
    "noradId": "53494",
    "tle": [
      "1 53494C 22099AF  25301.78520833  .00010766  00000+0  74774-3 0  3012",
      "2 53494  97.6023  61.2441 0001580  89.8476 313.0387 15.05630219    16"
    ]
  },
  "53495": {
    "noradId": "53495",
    "tle": [
      "1 53495C 22099AG  25301.79006944 -.00003957  00000+0 -30860-3 0  3010",
      "2 53495  97.6024  61.0733 0003190 225.0905 209.1838 15.01265858    15"
    ]
  },
  "53496": {
    "noradId": "53496",
    "tle": [
      "1 53496C 22099AH  25301.76923611  .00000311  00000+0  18206-5 0  3018",
      "2 53496  97.6540  69.2961 0001110  11.0716 249.4992 15.78347990    15"
    ]
  },
  "53497": {
    "noradId": "53497",
    "tle": [
      "1 53497C 22099AJ  25301.78937500 -.00001367  00000+0 -10659-3 0  3019",
      "2 53497  97.6026  61.0717 0002627 210.8219 239.7014 15.01263786    18"
    ]
  },
  "53498": {
    "noradId": "53498",
    "tle": [
      "1 53498C 22099AK  25301.78729167 -.00006697  00000+0 -46500-3 0  3013",
      "2 53498  97.6044  61.1433 0001798  91.1179 128.0617 15.05656328    19"
    ]
  },
  "53499": {
    "noradId": "53499",
    "tle": [
      "1 53499C 22099AL  25301.78798611 -.00005393  00000+0 -37449-3 0  3018",
      "2 53499  97.6028  61.2555 0000921  96.4091  51.4900 15.05654347    19"
    ]
  },
  "53500": {
    "noradId": "53500",
    "tle": [
      "1 53500C 22099AM  25301.78590278 -.00005606  00000+0 -38928-3 0  3010",
      "2 53500  97.6046  61.2858 0001125  95.0885 101.5087 15.05655865    10"
    ]
  },
  "53501": {
    "noradId": "53501",
    "tle": [
      "1 53501C 22099AN  25301.78590278 -.00002774  00000+0 -21635-3 0  3011",
      "2 53501  97.6035  61.0738 0002047 244.1187 227.6530 15.01264818    13"
    ]
  },
  "53502": {
    "noradId": "53502",
    "tle": [
      "1 53502C 22099AP  25301.79840278 -.00002568  00000+0 -17834-3 0  3018",
      "2 53502  97.6044  61.1967 0001791  93.1598 321.1913 15.05652399    16"
    ]
  },
  "53503": {
    "noradId": "53503",
    "tle": [
      "1 53503C 22099AQ  25301.78729167  .00001538  00000+0  87134-5 0  3017",
      "2 53503  97.6508  69.9833 0001040   4.1709 148.4436 15.79051572    10"
    ]
  },
  "53504": {
    "noradId": "53504",
    "tle": [
      "1 53504C 22099AR  25301.78590278 -.00001480  00000+0 -11546-3 0  3017",
      "2 53504  97.6027  61.0680 0001702 202.0990 249.6700 15.01263886    12"
    ]
  },
  "53505": {
    "noradId": "53505",
    "tle": [
      "1 53505C 22099AS  25301.78798611  .00021170  00000+0  16507-2 0  3016",
      "2 53505  97.6048  61.0760 0002363 254.4550 248.4176 15.01255430    12"
    ]
  },
  "53506": {
    "noradId": "53506",
    "tle": [
      "1 53506C 22099AT  25301.78937500 -.00004640  00000+0 -32218-3 0  3012",
      "2 53506  97.6049  61.1575 0001748  91.7054 243.7570 15.05654174    14"
    ]
  },
  "53508": {
    "noradId": "53508",
    "tle": [
      "1 53508C 22099AV  25301.78520833 -.00002473  00000+0 -17170-3 0  3013",
      "2 53508  97.6031  61.2188 0001152  92.4943  10.3708 15.05651323    16"
    ]
  },
  "53509": {
    "noradId": "53509",
    "tle": [
      "1 53509C 22099AW  25301.78937500 -.00003979  00000+0 -31034-3 0  3014",
      "2 53509  97.6039  61.0784 0002145 254.8656 275.6567 15.01266100    13"
    ]
  },
  "53527": {
    "noradId": "53527",
    "tle": [
      "1 53527C 22101A   25301.76159722  .00334190  00000+0  24592-2 0  3018",
      "2 53527  53.2014 250.4155 0007064 116.6992 326.1767 15.72027912    11"
    ]
  },
  "53528": {
    "noradId": "53528",
    "tle": [
      "1 53528C 22101B   25301.78798611  .00001281  00000+0  80308-4 0  3018",
      "2 53528  53.2169 306.2511 0001412  91.1665  44.2768 15.08837314    17"
    ]
  },
  "53529": {
    "noradId": "53529",
    "tle": [
      "1 53529C 22101C   25301.78729167  .00000802  00000+0  50295-4 0  3019",
      "2 53529  53.2165 306.2631 0001433  88.3067  83.3674 15.08837540    15"
    ]
  },
  "53530": {
    "noradId": "53530",
    "tle": [
      "1 53530C 22101D   25301.78590278  .00004121  00000+0  25844-3 0  3019",
      "2 53530  53.2172 306.4839 0001450  86.7113 357.2764 15.08830839    17"
    ]
  },
  "53531": {
    "noradId": "53531",
    "tle": [
      "1 53531C 22101E   25301.79840278  .00010762  00000+0  67513-3 0  3016",
      "2 53531  53.2164 306.2026 0001528  91.6350 160.3373 15.08814059    14"
    ]
  },
  "53532": {
    "noradId": "53532",
    "tle": [
      "1 53532C 22101F   25301.78729167  .00000925  00000+0  58031-4 0  3015",
      "2 53532  53.2167 306.2564 0001431  89.5707 282.0929 15.08838530    19"
    ]
  },
  "53533": {
    "noradId": "53533",
    "tle": [
      "1 53533C 22101G   25301.78729167  .00006360  00000+0  39873-3 0  3017",
      "2 53533  53.2168 306.2458 0001576 103.8375 287.7414 15.08842771    17"
    ]
  },
  "53535": {
    "noradId": "53535",
    "tle": [
      "1 53535C 22101J   25301.79770833  .00007443  00000+0  46668-3 0  3019",
      "2 53535  53.2170 306.2095 0001352  90.8643  17.3018 15.08836158    13"
    ]
  },
  "53536": {
    "noradId": "53536",
    "tle": [
      "1 53536C 22101K   25301.80048611  .00005080  00000+0  31857-3 0  3013",
      "2 53536  53.2166 296.1186 0001437  88.6512 169.7870 15.08831725    14"
    ]
  },
  "53537": {
    "noradId": "53537",
    "tle": [
      "1 53537C 22101L   25301.80743056  .00048361  00000+0  30348-2 0  3011",
      "2 53537  53.2168 306.1366 0001336  94.8097  61.1293 15.08763721    18"
    ]
  },
  "53538": {
    "noradId": "53538",
    "tle": [
      "1 53538C 22101M   25301.80604167  .00004457  00000+0  27951-3 0  3016",
      "2 53538  53.2164 296.1713 0001307  89.0677 179.5099 15.08831866    11"
    ]
  },
  "53539": {
    "noradId": "53539",
    "tle": [
      "1 53539C 22101N   25301.80673611  .00005977  00000+0  37484-3 0  3017",
      "2 53539  53.2169 306.1673 0001383  90.3691  86.9943 15.08829703    15"
    ]
  },
  "53540": {
    "noradId": "53540",
    "tle": [
      "1 53540C 22101P   25301.78729167  .00002579  00000+0  16169-3 0  3016",
      "2 53540  53.2158 296.6132 0001362  83.2022 278.0309 15.08835591    16"
    ]
  },
  "53541": {
    "noradId": "53541",
    "tle": [
      "1 53541C 22101Q   25301.78868056 -.00001678  00000+0 -10524-3 0  3018",
      "2 53541  53.2170 306.2482 0001631  89.5376  29.6768 15.08842978    13"
    ]
  },
  "53542": {
    "noradId": "53542",
    "tle": [
      "1 53542C 22101R   25301.78520833 -.00003271  00000+0 -20514-3 0  3018",
      "2 53542  53.2171 296.2659 0001370  88.9562 126.4120 15.08840116    19"
    ]
  },
  "53543": {
    "noradId": "53543",
    "tle": [
      "1 53543C 22101S   25301.78798611 -.00005312  00000+0 -33305-3 0  3010",
      "2 53543  53.2163 296.3196 0001345  89.1011  61.3023 15.08846952    15"
    ]
  },
  "53544": {
    "noradId": "53544",
    "tle": [
      "1 53544C 22101T   25301.78937500  .00008435  00000+0  52873-3 0  3011",
      "2 53544  53.2168 296.2444 0001745  91.7455 186.1250 15.08842330    15"
    ]
  },
  "53545": {
    "noradId": "53545",
    "tle": [
      "1 53545C 22101U   25301.78798611 -.00002981  00000+0 -18690-3 0  3011",
      "2 53545  53.2169 296.2532 0001332  90.1582 120.2816 15.08843812    14"
    ]
  },
  "53546": {
    "noradId": "53546",
    "tle": [
      "1 53546C 22101V   25301.78868056  .00005113  00000+0  32063-3 0  3011",
      "2 53546  53.2156 285.7795 0001387  86.3092 103.2217 15.08835749    14"
    ]
  },
  "53547": {
    "noradId": "53547",
    "tle": [
      "1 53547C 22101W   25301.79006944  .00000804  00000+0  50400-4 0  3011",
      "2 53547  53.2170 296.2427 0001410  75.1642 186.6104 15.08869963    19"
    ]
  },
  "53548": {
    "noradId": "53548",
    "tle": [
      "1 53548C 22101X   25301.78451389  .00004933  00000+0  30925-3 0  3014",
      "2 53548  53.2163 296.2666 0001471  84.9021 226.6899 15.08842299    12"
    ]
  }
}